SPACEBEE-48             
1 47447U 21006AL  22250.89419736  .00031267  00000+0  11796-2 0  9997
2 47447  97.4331 310.8793 0006831 352.8210   7.2930 15.26961748 89945
CUBEL                   
1 47448U 21006AM  22250.84886702  .00002495  00000+0  14040-3 0  9991
2 47448  97.4410 308.2002 0012015   2.8296 357.3002 15.14102999 89711
SPACEBEE-40             
1 47449U 21006AN  22250.67092223  .00024548  00000+0  97359-3 0  9997
2 47449  97.4333 310.2645 0007459 354.7653   5.3505 15.25342882 89889
LEMUR-2-NEVA            
1 47450U 21006AP  22251.15894265  .00009351  00000+0  45361-3 0  9990
2 47450  97.4391 309.5130 0009560   1.0716 359.0537 15.18673252 89842
SPACEBEE-41             
1 47451U 21006AQ  22251.14706362  .00023880  00000+0  94934-3 0  9993
2 47451  97.4338 310.7392 0007346 353.6475   6.4669 15.25269332 89955
FLOCK 4S-22             
1 47452U 21006AR  22250.73392294  .00008940  00000+0  45122-3 0  9998
2 47452  97.4379 308.5072 0009848 359.6009   0.5215 15.17298715 89746
LEMUR-2-SAOIRSEDH5GUO   
1 47453U 21006AS  22250.69470975  .00010798  00000+0  52050-3 0  9999
2 47453  97.4416 309.1276 0008474   5.0567 355.0751 15.18864707 89763
KEPLER-13 (LUCKY)       
1 47454U 21006AT  22251.11169853  .00008384  00000+0  42446-3 0  9994
2 47454  97.4315 308.4404 0009471 355.8239   4.2914 15.17211568 89806
SPACEBEE-42             
1 47455U 21006AU  22250.72783424  .00024369  00000+0  97696-3 0  9995
2 47455  97.4340 310.2558 0007284 355.7210   4.3964 15.24984973 89883
FLOCK 4S-21             
1 47456U 21006AV  22251.13324104  .00010993  00000+0  55366-3 0  9994
2 47456  97.4384 308.9506 0009705 357.9029   2.2162 15.17315956 89801
LEMUR-2-NALLYWACKER     
1 47457U 21006AW  22251.14287099  .00010100  00000+0  48396-3 0  9992
2 47457  97.4388 309.5490 0009267   0.6094 359.5150 15.19081168 89848
IDEASSAT                
1 47458U 21006AX  22251.11945860  .00005262  00000+0  27763-3 0  9995
2 47458  97.4368 308.6098 0010220   0.0530   0.0702 15.15930141 89785
SPACEBEE-55             
1 47459U 21006AY  22250.73209997  .00007382  00000+0  37154-3 0  9997
2 47459  97.4293 308.0484 0010827   7.9137 352.2266 15.17447868 89753
SPACEBEE-54             
1 47460U 21006AZ  22251.13037901  .00025174  00000+0  10093-2 0  9999
2 47460  97.4341 310.6672 0007165 354.3268   5.7887 15.24976711 89944
KEPLER-15 (SUDORMRF)    
1 47461U 21006BA  22251.09939974  .00007890  00000+0  41202-3 0  9998
2 47461  97.4323 307.6304 0007466  23.2628 336.8942 15.16154009 89746
FLOCK 4S-11             
1 47462U 21006BB  22250.82440627  .00004373  00000+0  24338-3 0  9995
2 47462  97.4339 306.9143 0008489  26.2321 333.9339 15.14129062 89664
SPACEBEE-58             
1 47464U 21006BD  22251.16006804  .00023502  00000+0  90298-3 0  9993
2 47464  97.4378 312.1268 0009312 347.7663  12.3348 15.26396763 90029
