let sat = [{"OBJECT_NAME":"SPACEBEE-48","OBJECT_ID":"2021-006AL","EPOCH":"2022-09-07T21:27:38.651904","MEAN_MOTION":15.26961748,"ECCENTRICITY":0.0006831,"INCLINATION":97.4331,"RA_OF_ASC_NODE":310.8793,"ARG_OF_PERICENTER":352.821,"MEAN_ANOMALY":7.293,"EPHEMERIS_TYPE":0,"CLASSIFICATION_TYPE":"U","NORAD_CAT_ID":47447,"ELEMENT_SET_NO":999,"REV_AT_EPOCH":8994,"BSTAR":0.0011796,"MEAN_MOTION_DOT":0.00031267,"MEAN_MOTION_DDOT":0},{"OBJECT_NAME":"CUBEL","OBJECT_ID":"2021-006AM","EPOCH":"2022-09-07T20:22:22.110528","MEAN_MOTION":15.14102999,"ECCENTRICITY":0.0012015,"INCLINATION":97.441,"RA_OF_ASC_NODE":308.2002,"ARG_OF_PERICENTER":2.8296,"MEAN_ANOMALY":357.3002,"EPHEMERIS_TYPE":0,"CLASSIFICATION_TYPE":"U","NORAD_CAT_ID":47448,"ELEMENT_SET_NO":999,"REV_AT_EPOCH":8971,"BSTAR":0.0001404,"MEAN_MOTION_DOT":2.495e-5,"MEAN_MOTION_DDOT":0},{"OBJECT_NAME":"SPACEBEE-40","OBJECT_ID":"2021-006AN","EPOCH":"2022-09-07T16:06:07.680672","MEAN_MOTION":15.25342882,"ECCENTRICITY":0.0007459,"INCLINATION":97.4333,"RA_OF_ASC_NODE":310.2645,"ARG_OF_PERICENTER":354.7653,"MEAN_ANOMALY":5.3505,"EPHEMERIS_TYPE":0,"CLASSIFICATION_TYPE":"U","NORAD_CAT_ID":47449,"ELEMENT_SET_NO":999,"REV_AT_EPOCH":8988,"BSTAR":0.00097359,"MEAN_MOTION_DOT":0.00024548,"MEAN_MOTION_DDOT":0},{"OBJECT_NAME":"LEMUR-2-NEVA","OBJECT_ID":"2021-006AP","EPOCH":"2022-09-08T03:48:52.644960","MEAN_MOTION":15.18673252,"ECCENTRICITY":0.000956,"INCLINATION":97.4391,"RA_OF_ASC_NODE":309.513,"ARG_OF_PERICENTER":1.0716,"MEAN_ANOMALY":359.0537,"EPHEMERIS_TYPE":0,"CLASSIFICATION_TYPE":"U","NORAD_CAT_ID":47450,"ELEMENT_SET_NO":999,"REV_AT_EPOCH":8984,"BSTAR":0.00045361,"MEAN_MOTION_DOT":9.351e-5,"MEAN_MOTION_DDOT":0},{"OBJECT_NAME":"SPACEBEE-41","OBJECT_ID":"2021-006AQ","EPOCH":"2022-09-08T03:31:46.296768","MEAN_MOTION":15.25269332,"ECCENTRICITY":0.0007346,"INCLINATION":97.4338,"RA_OF_ASC_NODE":310.7392,"ARG_OF_PERICENTER":353.6475,"MEAN_ANOMALY":6.4669,"EPHEMERIS_TYPE":0,"CLASSIFICATION_TYPE":"U","NORAD_CAT_ID":47451,"ELEMENT_SET_NO":999,"REV_AT_EPOCH":8995,"BSTAR":0.00094934,"MEAN_MOTION_DOT":0.0002388,"MEAN_MOTION_DDOT":0},{"OBJECT_NAME":"FLOCK 4S-22","OBJECT_ID":"2021-006AR","EPOCH":"2022-09-07T17:36:50.942016","MEAN_MOTION":15.17298715,"ECCENTRICITY":0.0009848,"INCLINATION":97.4379,"RA_OF_ASC_NODE":308.5072,"ARG_OF_PERICENTER":359.6009,"MEAN_ANOMALY":0.5215,"EPHEMERIS_TYPE":0,"CLASSIFICATION_TYPE":"U","NORAD_CAT_ID":47452,"ELEMENT_SET_NO":999,"REV_AT_EPOCH":8974,"BSTAR":0.00045122,"MEAN_MOTION_DOT":8.94e-5,"MEAN_MOTION_DDOT":0},{"OBJECT_NAME":"LEMUR-2-SAOIRSEDH5GUO","OBJECT_ID":"2021-006AS","EPOCH":"2022-09-07T16:40:22.922400","MEAN_MOTION":15.18864707,"ECCENTRICITY":0.0008474,"INCLINATION":97.4416,"RA_OF_ASC_NODE":309.1276,"ARG_OF_PERICENTER":5.0567,"MEAN_ANOMALY":355.0751,"EPHEMERIS_TYPE":0,"CLASSIFICATION_TYPE":"U","NORAD_CAT_ID":47453,"ELEMENT_SET_NO":999,"REV_AT_EPOCH":8976,"BSTAR":0.0005205,"MEAN_MOTION_DOT":0.00010798,"MEAN_MOTION_DDOT":0},{"OBJECT_NAME":"KEPLER-13 (LUCKY)","OBJECT_ID":"2021-006AT","EPOCH":"2022-09-08T02:40:50.752992","MEAN_MOTION":15.17211568,"ECCENTRICITY":0.0009471,"INCLINATION":97.4315,"RA_OF_ASC_NODE":308.4404,"ARG_OF_PERICENTER":355.8239,"MEAN_ANOMALY":4.2914,"EPHEMERIS_TYPE":0,"CLASSIFICATION_TYPE":"U","NORAD_CAT_ID":47454,"ELEMENT_SET_NO":999,"REV_AT_EPOCH":8980,"BSTAR":0.00042446,"MEAN_MOTION_DOT":8.384e-5,"MEAN_MOTION_DDOT":0},{"OBJECT_NAME":"SPACEBEE-42","OBJECT_ID":"2021-006AU","EPOCH":"2022-09-07T17:28:04.878336","MEAN_MOTION":15.24984973,"ECCENTRICITY":0.0007284,"INCLINATION":97.434,"RA_OF_ASC_NODE":310.2558,"ARG_OF_PERICENTER":355.721,"MEAN_ANOMALY":4.3964,"EPHEMERIS_TYPE":0,"CLASSIFICATION_TYPE":"U","NORAD_CAT_ID":47455,"ELEMENT_SET_NO":999,"REV_AT_EPOCH":8988,"BSTAR":0.00097696,"MEAN_MOTION_DOT":0.00024369,"MEAN_MOTION_DDOT":0},{"OBJECT_NAME":"FLOCK 4S-21","OBJECT_ID":"2021-006AV","EPOCH":"2022-09-08T03:11:52.025856","MEAN_MOTION":15.17315956,"ECCENTRICITY":0.0009705,"INCLINATION":97.4384,"RA_OF_ASC_NODE":308.9506,"ARG_OF_PERICENTER":357.9029,"MEAN_ANOMALY":2.2162,"EPHEMERIS_TYPE":0,"CLASSIFICATION_TYPE":"U","NORAD_CAT_ID":47456,"ELEMENT_SET_NO":999,"REV_AT_EPOCH":8980,"BSTAR":0.00055366,"MEAN_MOTION_DOT":0.00010993,"MEAN_MOTION_DDOT":0},{"OBJECT_NAME":"LEMUR-2-NALLYWACKER","OBJECT_ID":"2021-006AW","EPOCH":"2022-09-08T03:25:44.053536","MEAN_MOTION":15.19081168,"ECCENTRICITY":0.0009267,"INCLINATION":97.4388,"RA_OF_ASC_NODE":309.549,"ARG_OF_PERICENTER":0.6094,"MEAN_ANOMALY":359.515,"EPHEMERIS_TYPE":0,"CLASSIFICATION_TYPE":"U","NORAD_CAT_ID":47457,"ELEMENT_SET_NO":999,"REV_AT_EPOCH":8984,"BSTAR":0.00048396,"MEAN_MOTION_DOT":0.000101,"MEAN_MOTION_DDOT":0},{"OBJECT_NAME":"IDEASSAT","OBJECT_ID":"2021-006AX","EPOCH":"2022-09-08T02:52:01.223040","MEAN_MOTION":15.15930141,"ECCENTRICITY":0.001022,"INCLINATION":97.4368,"RA_OF_ASC_NODE":308.6098,"ARG_OF_PERICENTER":0.053,"MEAN_ANOMALY":0.0702,"EPHEMERIS_TYPE":0,"CLASSIFICATION_TYPE":"U","NORAD_CAT_ID":47458,"ELEMENT_SET_NO":999,"REV_AT_EPOCH":8978,"BSTAR":0.00027763,"MEAN_MOTION_DOT":5.262e-5,"MEAN_MOTION_DDOT":0},{"OBJECT_NAME":"SPACEBEE-55","OBJECT_ID":"2021-006AY","EPOCH":"2022-09-07T17:34:13.437408","MEAN_MOTION":15.17447868,"ECCENTRICITY":0.0010827,"INCLINATION":97.4293,"RA_OF_ASC_NODE":308.0484,"ARG_OF_PERICENTER":7.9137,"MEAN_ANOMALY":352.2266,"EPHEMERIS_TYPE":0,"CLASSIFICATION_TYPE":"U","NORAD_CAT_ID":47459,"ELEMENT_SET_NO":999,"REV_AT_EPOCH":8975,"BSTAR":0.00037154,"MEAN_MOTION_DOT":7.382e-5,"MEAN_MOTION_DDOT":0},{"OBJECT_NAME":"SPACEBEE-54","OBJECT_ID":"2021-006AZ","EPOCH":"2022-09-08T03:07:44.746464","MEAN_MOTION":15.24976711,"ECCENTRICITY":0.0007165,"INCLINATION":97.4341,"RA_OF_ASC_NODE":310.6672,"ARG_OF_PERICENTER":354.3268,"MEAN_ANOMALY":5.7887,"EPHEMERIS_TYPE":0,"CLASSIFICATION_TYPE":"U","NORAD_CAT_ID":47460,"ELEMENT_SET_NO":999,"REV_AT_EPOCH":8994,"BSTAR":0.0010093,"MEAN_MOTION_DOT":0.00025174,"MEAN_MOTION_DDOT":0},{"OBJECT_NAME":"KEPLER-15 (SUDORMRF)","OBJECT_ID":"2021-006BA","EPOCH":"2022-09-08T02:23:08.137536","MEAN_MOTION":15.16154009,"ECCENTRICITY":0.0007466,"INCLINATION":97.4323,"RA_OF_ASC_NODE":307.6304,"ARG_OF_PERICENTER":23.2628,"MEAN_ANOMALY":336.8942,"EPHEMERIS_TYPE":0,"CLASSIFICATION_TYPE":"U","NORAD_CAT_ID":47461,"ELEMENT_SET_NO":999,"REV_AT_EPOCH":8974,"BSTAR":0.00041202,"MEAN_MOTION_DOT":7.89e-5,"MEAN_MOTION_DDOT":0},{"OBJECT_NAME":"FLOCK 4S-11","OBJECT_ID":"2021-006BB","EPOCH":"2022-09-07T19:47:08.701728","MEAN_MOTION":15.14129062,"ECCENTRICITY":0.0008489,"INCLINATION":97.4339,"RA_OF_ASC_NODE":306.9143,"ARG_OF_PERICENTER":26.2321,"MEAN_ANOMALY":333.9339,"EPHEMERIS_TYPE":0,"CLASSIFICATION_TYPE":"U","NORAD_CAT_ID":47462,"ELEMENT_SET_NO":999,"REV_AT_EPOCH":8966,"BSTAR":0.00024338,"MEAN_MOTION_DOT":4.373e-5,"MEAN_MOTION_DDOT":0},{"OBJECT_NAME":"SPACEBEE-58","OBJECT_ID":"2021-006BD","EPOCH":"2022-09-08T03:50:29.878656","MEAN_MOTION":15.26396763,"ECCENTRICITY":0.0009312,"INCLINATION":97.4378,"RA_OF_ASC_NODE":312.1268,"ARG_OF_PERICENTER":347.7663,"MEAN_ANOMALY":12.3348,"EPHEMERIS_TYPE":0,"CLASSIFICATION_TYPE":"U","NORAD_CAT_ID":47464,"ELEMENT_SET_NO":999,"REV_AT_EPOCH":9002,"BSTAR":0.00090298,"MEAN_MOTION_DOT":0.00023502,"MEAN_MOTION_DDOT":0}]